#cP2005  4  7 00 00 00.00000000    2880 *POS* WGS84 FIT DLR*
## 1317 345600.00000000    30.00000000 53467 0.0000000000000
+    1   L06  0  0  0  0  0  0  0  0  0  0  0  0  0  0  0  0
+          0  0  0  0  0  0  0  0  0  0  0  0  0  0  0  0  0
+          0  0  0  0  0  0  0  0  0  0  0  0  0  0  0  0  0
+          0  0  0  0  0  0  0  0  0  0  0  0  0  0  0  0  0
+          0  0  0  0  0  0  0  0  0  0  0  0  0  0  0  0  0
++         0  0  0  0  0  0  0  0  0  0  0  0  0  0  0  0  0
++         0  0  0  0  0  0  0  0  0  0  0  0  0  0  0  0  0
++         0  0  0  0  0  0  0  0  0  0  0  0  0  0  0  0  0
++         0  0  0  0  0  0  0  0  0  0  0  0  0  0  0  0  0
++         0  0  0  0  0  0  0  0  0  0  0  0  0  0  0  0  0
%c cc cc ccc ccc cccc cccc cccc cccc ccccc ccccc ccccc ccccc
%c cc cc ccc ccc cccc cccc cccc cccc ccccc ccccc ccccc ccccc
%f   .0000000   .000000000   .00000000000   .000000000000000
%f   .0000000   .000000000   .00000000000   .000000000000000
%i    0    0    0    0      0      0      0      0         0
%i    0    0    0    0      0      0      0      0         0
/* NOTE: CCCCCCCCCCCCCCCCCCCCCCCCCCCCCCCCCCCCCCCCCCCCCCCCCCC
/* CCCCCCCCCCCCCCCCCCCCCCCCCCCCCCCCCCCCCCCCCCCCCCCCCCCCCCCCC
/* CCCCCCCCCCCCCCCCCCCCCCCCCCCCCCCCCCCCCCCCCCCCCCCCCCCCCCCCC
/* CCCCCCCCCCCCCCCCCCCCCCCCCCCCCCCCCCCCCCCCCCCCCCCCCCCCCCCCC
*  2005 04 07 15 30 00.00000000
PL06  -4431.346587   3750.279099   3413.649237 999999.000000
*  2005 04 07 15 30 30.00000000
PL06  -4339.604355   3672.106814   3610.128112 999999.000000
*  2005 04 07 15 31 00.00000000
PL06  -4243.141174   3589.229976   3802.356860 999999.000000
*  2005 04 07 15 31 30.00000000
PL06  -4142.090564   3501.725403   3990.109503 999999.000000
*  2005 04 07 15 32 00.00000000
PL06  -4036.591086   3409.675916   4173.165381 999999.000000
*  2005 04 07 15 32 30.00000000
PL06  -3926.786162   3313.170284   4351.309418 999999.000000
*  2005 04 07 15 33 00.00000000
PL06  -3812.823866   3212.303143   4524.332408 999999.000000
*  2005 04 07 15 33 30.00000000
PL06  -3694.856700   3107.174883   4692.031255 999999.000000
*  2005 04 07 15 34 00.00000000
PL06  -3573.041381   2997.891539   4854.209188 999999.000000
*  2005 04 07 15 34 30.00000000
PL06  -3447.538639   2884.564692   5010.675990 999999.000000
*  2005 04 07 15 35 00.00000000
PL06  -3318.512986   2767.311342   5161.248229 999999.000000
*  2005 04 07 15 35 30.00000000
PL06  -3186.132508   2646.253779   5305.749456 999999.000000
*  2005 04 07 15 36 00.00000000
PL06  -3050.568629   2521.519447   5444.010416 999999.000000
*  2005 04 07 15 36 30.00000000
PL06  -2911.995893   2393.240813   5575.869234 999999.000000
*  2005 04 07 15 37 00.00000000
PL06  -2770.591727   2261.555215   5701.171597 999999.000000
*  2005 04 07 15 37 30.00000000
PL06  -2626.536216   2126.604714   5819.770927 999999.000000
*  2005 04 07 15 38 00.00000000
PL06  -2480.011867   1988.535934   5931.528548 999999.000000
*  2005 04 07 15 38 30.00000000
PL06  -2331.203371   1847.499908   6036.313847 999999.000000
*  2005 04 07 15 39 00.00000000
PL06  -2180.297360   1703.651903   6134.004415 999999.000000
*  2005 04 07 15 39 30.00000000
PL06  -2027.482172   1557.151253   6224.486182 999999.000000
*  2005 04 07 15 40 00.00000000
PL06  -1872.947620   1408.161169   6307.653543 999999.000000
*  2005 04 07 15 40 30.00000000
PL06  -1716.884746   1256.848553   6383.409470 999999.000000
*  2005 04 07 15 41 00.00000000
PL06  -1559.485587   1103.383812   6451.665609 999999.000000
*  2005 04 07 15 41 30.00000000
PL06  -1400.942940    947.940665   6512.342376 999999.000000
*  2005 04 07 15 42 00.00000000
PL06  -1241.450134    790.695954   6565.369042 999999.000000
*  2005 04 07 15 42 30.00000000
PL06  -1081.200794    631.829436   6610.683822 999999.000000
*  2005 04 07 15 43 00.00000000
PL06   -920.388602    471.523582   6648.233948 999999.000000
*  2005 04 07 15 43 30.00000000
PL06   -759.207053    309.963357   6677.975712 999999.000000
*  2005 04 07 15 44 00.00000000
PL06   -597.849227    147.336009   6699.874509 999999.000000
*  2005 04 07 15 44 30.00000000
PL06   -436.507573    -16.169135   6713.904872 999999.000000
*  2005 04 07 15 45 00.00000000
PL06   -275.373674   -180.360897   6720.050509 999999.000000
*  2005 04 07 15 45 30.00000000
PL06   -114.638018   -345.046463   6718.304322 999999.000000
*  2005 04 07 15 46 00.00000000
PL06     45.510221   -510.031615   6708.668411 999999.000000
*  2005 04 07 15 46 30.00000000
PL06    204.883409   -675.120951   6691.154080 999999.000000
*  2005 04 07 15 47 00.00000000
PL06    363.295667   -840.118127   6665.781823 999999.000000
*  2005 04 07 15 47 30.00000000
PL06    520.563099  -1004.826085   6632.581309 999999.000000
*  2005 04 07 15 48 00.00000000
PL06    676.504008  -1169.047300   6591.591324 999999.000000
*  2005 04 07 15 48 30.00000000
PL06    830.939080  -1332.583999   6542.859720 999999.000000
*  2005 04 07 15 49 00.00000000
PL06    983.691584  -1495.238391   6486.443396 999999.000000
*  2005 04 07 15 49 30.00000000
PL06   1134.587602  -1656.812925   6422.408238 999999.000000
*  2005 04 07 15 50 00.00000000
PL06   1283.456215  -1817.110523   6350.829029 999999.000000
*  2005 04 07 15 50 30.00000000
PL06   1430.129698  -1975.934819   6271.789380 999999.000000
*  2005 04 07 15 51 00.00000000
PL06   1574.443718  -2133.090406   6185.381631 999999.000000
*  2005 04 07 15 51 30.00000000
PL06   1716.237513  -2288.383069   6091.706748 999999.000000
*  2005 04 07 15 52 00.00000000
PL06   1855.354067  -2441.620026   5990.874222 999999.000000
*  2005 04 07 15 52 30.00000000
PL06   1991.640289  -2592.610183   5883.001950 999999.000000
*  2005 04 07 15 53 00.00000000
PL06   2124.947188  -2741.164375   5768.216098 999999.000000
*  2005 04 07 15 53 30.00000000
PL06   2255.130038  -2887.095602   5646.650950 999999.000000
*  2005 04 07 15 54 00.00000000
PL06   2382.048540  -3030.219262   5518.448768 999999.000000
*  2005 04 07 15 54 30.00000000
PL06   2505.566970  -3170.353389   5383.759623 999999.000000
*  2005 04 07 15 55 00.00000000
PL06   2625.554328  -3307.318886   5242.741236 999999.000000
*  2005 04 07 15 55 30.00000000
PL06   2741.884482  -3440.939761   5095.558795 999999.000000
*  2005 04 07 15 56 00.00000000
PL06   2854.436306  -3571.043348   4942.384781 999999.000000
*  2005 04 07 15 56 30.00000000
PL06   2963.093815  -3697.460550   4783.398770 999999.000000
*  2005 04 07 15 57 00.00000000
PL06   3067.746290  -3820.026057   4618.787228 999999.000000
*  2005 04 07 15 57 30.00000000
PL06   3168.288398  -3938.578585   4448.743300 999999.000000
*  2005 04 07 15 58 00.00000000
PL06   3264.620306  -4052.961097   4273.466568 999999.000000
*  2005 04 07 15 58 30.00000000
PL06   3356.647775  -4163.021007   4093.162810 999999.000000
*  2005 04 07 15 59 00.00000000
PL06   3444.282249  -4268.610373   3908.043770 999999.000000
*  2005 04 07 15 59 30.00000000
PL06   3527.440951  -4369.586107   3718.326923 999999.000000
*  2005 04 07 16 00 00.00000000
PL06   3606.046964  -4465.810186   3524.235214 999999.000000
*  2005 04 07 16 00 30.00000000
PL06   3680.029305  -4557.149841   3325.996794 999999.000000
*  2005 04 07 16 01 00.00000000
PL06   3749.322990  -4643.477750   3123.844748 999999.000000
*  2005 04 07 16 01 30.00000000
PL06   3813.869087  -4724.672216   2918.016816 999999.000000
*  2005 04 07 16 02 00.00000000
PL06   3873.614770  -4800.617344   2708.755112 999999.000000
*  2005 04 07 16 02 30.00000000
PL06   3928.513354  -4871.203212   2496.305832 999999.000000
*  2005 04 07 16 03 00.00000000
PL06   3978.524332  -4936.326027   2280.918967 999999.000000
*  2005 04 07 16 03 30.00000000
PL06   4023.613404  -4995.888284   2062.847994 999999.000000
*  2005 04 07 16 04 00.00000000
PL06   4063.752492  -5049.798911   1842.349576 999999.000000
*  2005 04 07 16 04 30.00000000
PL06   4098.919747  -5097.973407   1619.683248 999999.000000
*  2005 04 07 16 05 00.00000000
PL06   4129.099550  -5140.333975   1395.111094 999999.000000
*  2005 04 07 16 05 30.00000000
PL06   4154.282492  -5176.809642   1168.897434 999999.000000
*  2005 04 07 16 06 00.00000000
PL06   4174.465361  -5207.336360    941.308498 999999.000000
*  2005 04 07 16 06 30.00000000
PL06   4189.651106  -5231.857102    712.612107 999999.000000
*  2005 04 07 16 07 00.00000000
PL06   4199.848812  -5250.321956    483.077368 999999.000000
*  2005 04 07 16 07 30.00000000
PL06   4205.073672  -5262.688215    252.974344 999999.000000
*  2005 04 07 16 08 00.00000000
PL06   4205.346929  -5268.920469     22.573722 999999.000000
*  2005 04 07 16 08 30.00000000
PL06   4200.695818  -5268.990665   -207.853522 999999.000000
*  2005 04 07 16 09 00.00000000
PL06   4191.153504  -5262.878176   -438.036457 999999.000000
*  2005 04 07 16 09 30.00000000
PL06   4176.759002  -5250.569831   -667.704537 999999.000000
*  2005 04 07 16 10 00.00000000
PL06   4157.557085  -5232.059950   -896.587924 999999.000000
*  2005 04 07 16 10 30.00000000
PL06   4133.598195  -5207.350366  -1124.417812 999999.000000
*  2005 04 07 16 11 00.00000000
PL06   4104.938350  -5176.450442  -1350.926743 999999.000000
*  2005 04 07 16 11 30.00000000
PL06   4071.639037  -5139.377075  -1575.848937 999999.000000
*  2005 04 07 16 12 00.00000000
PL06   4033.767102  -5096.154690  -1798.920602 999999.000000
*  2005 04 07 16 12 30.00000000
PL06   3991.394637  -5046.815232  -2019.880252 999999.000000
*  2005 04 07 16 13 00.00000000
PL06   3944.598858  -4991.398151  -2238.469025 999999.000000
*  2005 04 07 16 13 30.00000000
PL06   3893.461971  -4929.950352  -2454.431006 999999.000000
*  2005 04 07 16 14 00.00000000
PL06   3838.071028  -4862.526141  -2667.513525 999999.000000
*  2005 04 07 16 14 30.00000000
PL06   3778.517771  -4789.187169  -2877.467437 999999.000000
*  2005 04 07 16 15 00.00000000
PL06   3714.898500  -4710.002381  -3084.047408 999999.000000
*  2005 04 07 16 15 30.00000000
PL06   3647.313918  -4625.047958  -3287.012210 999999.000000
*  2005 04 07 16 16 00.00000000
PL06   3575.868981  -4534.407232  -3486.125016 999999.000000
EOF
